CELESTIS-02             
1 25160U 98007D   22328.48312144 -.00000016  00000+0  50354-4 0  9990
2 25160 107.9829 229.0202 0062953 198.0442 246.2112 14.21665535285609
CELESTIS-03             
1 26034U 99070C   22328.51624872  .00017738  00000+0  70806-3 0  9991
2 26034  98.3035 351.0349 0007357 312.3168  47.7444 15.25215933245418
